NORAD_CAT_ID,OBJECT_NAME,OBJECT_TYPE,EPOCH,MEAN_MOTION,ECCENTRICITY,INCLINATION,RA_OF_ASC_NODE,ARG_OF_PERICENTER,MEAN_ANOMALY,BSTAR,MEAN_MOTION_DOT,MEAN_MOTION_DDOT,TLE_LINE0,TLE_LINE1,TLE_LINE2,SEMIMAJOR_AXIS,PERIOD,APOGEE,PERIGEE,DECAYED
53619.0,STARLINK-4609,PAYLOAD,2022-10-16 22:00:00,15.49904966,0.0001207,53.2172,42.462,68.516,219.7733,-0.00059043,-0.0003384,0.0,0 STARLINK-4609,1 53619U 22104AH  22289.91667824 -.00033840  00000-0 -59043-3 0  9993,2 53619  53.2172  42.4620 0001207  68.5160 219.7733 15.49904966  1309,6795.141,92.909,417.826,416.186,0.0
53619.0,STARLINK-4609,PAYLOAD,2022-10-17 14:00:01,15.49873632,0.0001439,53.2174,39.2763,45.2153,4.8596,-0.018797,-0.00975922,0.0,0 STARLINK-4609,1 53619U 22104AH  22290.58334491 -.00975922  00000-0 -18797-1 0  9994,2 53619  53.2174  39.2763 0001439  45.2153   4.8596 15.49873632  1309,6795.232,92.911,418.075,416.12,0.0
53619.0,STARLINK-4609,PAYLOAD,2022-10-17 22:00:00,15.491733800000002,0.0001481,53.2169,37.6836,50.1538,60.4007,-0.021065,-0.01058573,0.0,0 STARLINK-4609,1 53619U 22104AH  22290.91667824 -.01058573  00000-0 -21065-1 0  9997,2 53619  53.2169  37.6836 0001481  50.1538  60.4007 15.49173380  1303,6797.28,92.953,420.152,418.138,0.0
53619.0,STARLINK-4609,PAYLOAD,2022-10-18 14:00:01,15.47653268,0.0001612,53.2175,34.505,48.1888,180.641,-0.022179,-0.01056637,0.0,0 STARLINK-4609,1 53619U 22104AH  22291.58334491 -.01056637  00000-0 -22179-1 0  9998,2 53619  53.2175  34.5050 0001612  48.1888 180.6410 15.47653268  1304,6801.73,93.044,424.692,422.499,0.0
53619.0,STARLINK-4609,PAYLOAD,2022-10-18 22:00:00,15.46906903,0.0001409999999999,53.2168,32.9176,47.7659,238.827,-0.023214,-0.01075471,0.0,0 STARLINK-4609,1 53619U 22104AH  22291.91667824 -.01075471  00000-0 -23214-1 0  9992,2 53619  53.2168  32.9176 0001410  47.7659 238.8270 15.46906903  1300,6803.918000000002,93.089,426.742,424.823,0.0
53619.0,STARLINK-4609,PAYLOAD,2022-10-19 14:00:01,15.45377532,0.0001598,53.2175,29.75,38.6606,0.7359,-0.024106,-0.01060653,0.0,0 STARLINK-4609,1 53619U 22104AH  22292.58334491 -.01060653  00000-0 -24106-1 0  9994,2 53619  53.2175  29.7500 0001598  38.6606   0.7359 15.45377532  1304,6808.406,93.181,431.359,429.1830000000001,0.0
53619.0,STARLINK-4609,PAYLOAD,2022-10-19 22:00:00,15.4461585,0.0001272,53.2172,28.1678,61.5278,32.9007,-0.024649,-0.01056793,0.0,0 STARLINK-4609,1 53619U 22104AH  22292.91667824 -.01056793  00000-0 -24649-1 0  9992,2 53619  53.2172  28.1678 0001272  61.5278  32.9007 15.44615850  1303,6810.644,93.227,433.375,431.643,0.0
53619.0,STARLINK-4609,PAYLOAD,2022-10-20 06:00:00,15.43856176,0.0001564,53.2175,26.5872,50.2295,98.3171,-0.025268,-0.01055725,0.0,0 STARLINK-4609,1 53619U 22104AH  22293.25001157 -.01055725  00000-0 -25268-1 0  9993,2 53619  53.2175  26.5872 0001564  50.2295  98.3171 15.43856176  8371,6812.878000000002,93.273,435.809,433.67800000000005,0.0
53619.0,STARLINK-4609,PAYLOAD,2022-10-20 14:00:01,15.43096205,0.0001644,53.2173,25.0113,49.1383,152.6129,-0.025918,-0.01055298,0.0,0 STARLINK-4609,1 53619U 22104AH  22293.58334491 -.01055298  00000-0 -25918-1 0  9996,2 53619  53.2173  25.0113 0001644  49.1383 152.6129 15.43096205  1307,6815.115,93.319,438.1,435.859,0.0
53619.0,STARLINK-4609,PAYLOAD,2022-10-20 22:00:00,15.42338817,0.0001485,53.2173,23.4345,50.4159,203.6279,-0.026698,-0.01073994,0.0,0 STARLINK-4609,1 53619U 22104AH  22293.91667824 -.01073994  00000-0 -26698-1 0  9991,2 53619  53.2173  23.4345 0001485  50.4159 203.6279 15.42338817  1305,6817.346,93.365,440.223,438.198,0.0
53619.0,STARLINK-4609,PAYLOAD,2022-10-21 06:00:00,15.41576305,0.0001193999999999,53.2174,21.8593,77.7757,227.6493,-0.027214,-0.01067512,0.0,0 STARLINK-4609,1 53619U 22104AH  22294.25001157 -.01067512  00000-0 -27214-1 0  9994,2 53619  53.2174  21.8593 0001194  77.7757 227.6493 15.41576305  8526,6819.594,93.411,442.273,440.644,0.0
53619.0,STARLINK-4609,PAYLOAD,2022-10-21 14:00:01,15.40819637,0.0001364,53.2173,20.289,50.6604,305.2299,-0.0280699999999999,-0.01073109,0.0,0 STARLINK-4609,1 53619U 22104AH  22294.58334491 -.01073109  00000-0 -28070-1 0  9990,2 53619  53.2173  20.2890 0001364  50.6604 305.2299 15.40819637  1301,6821.826,93.457,444.622,442.761,0.0
53619.0,STARLINK-4609,PAYLOAD,2022-10-21 22:00:00,15.40070391,0.0001443,53.2171,18.7175,43.7846,1.656,-0.029188,-0.01087135,0.0,0 STARLINK-4609,1 53619U 22104AH  22294.91667824 -.01087135  00000-0 -29188-1 0  9991,2 53619  53.2171  18.7175 0001443  43.7846   1.6560 15.40070391  1300,6824.038000000001,93.502,446.888,444.919,0.0
53619.0,STARLINK-4609,PAYLOAD,2022-10-22 06:00:00,15.39297948,0.0001494,53.2175,17.1478,49.2114,44.8775,-0.029366,-0.01067816,0.0,0 STARLINK-4609,1 53619U 22104AH  22295.25001157 -.01067816  00000-0 -29366-1 0  9992,2 53619  53.2175  17.1478 0001494  49.2114  44.8775 15.39297948  8680,6826.321,93.549,449.206,447.166,0.0
53619.0,STARLINK-4609,PAYLOAD,2022-10-22 14:00:01,15.38540126,0.0001585,53.2175,15.5829,52.3772,89.4392,-0.030198,-0.01070749,0.0,0 STARLINK-4609,1 53619U 22104AH  22295.58334491 -.01070749  00000-0 -30198-1 0  9992,2 53619  53.2175  15.5829 0001585  52.3772  89.4392 15.38540126  1308,6828.563,93.595,451.51,449.345,0.0
53619.0,STARLINK-4609,PAYLOAD,2022-10-22 22:00:00,15.37787319,0.0001628,53.2172,14.0166,47.6228,141.0081,-0.03126,-0.01080524,0.0,0 STARLINK-4609,1 53619U 22104AH  22295.91667824 -.01080524  00000-0 -31260-1 0  9991,2 53619  53.2172  14.0166 0001628  47.6228 141.0081 15.37787319  1300,6830.791,93.641,453.768,451.544,0.0
53619.0,STARLINK-4609,PAYLOAD,2022-10-23 06:00:00,15.37027978,0.000167,53.2172,12.4527,43.8112,190.7231,-0.031991,-0.01078882,0.0,0 STARLINK-4609,1 53619U 22104AH  22296.25001157 -.01078882  00000-0 -31991-1 0  9995,2 53619  53.2172  12.4527 0001670  43.8112 190.7231 15.37027978  8831,6833.04,93.687,456.047,453.764,0.0
53619.0,STARLINK-4609,PAYLOAD,2022-10-23 14:00:01,15.36266205,0.0001528,53.2176,10.8932,49.7381,229.7877,-0.032704,-0.01076184,0.0,0 STARLINK-4609,1 53619U 22104AH  22296.58334491 -.01076184  00000-0 -32704-1 0  9997,2 53619  53.2176  10.8932 0001528  49.7381 229.7877 15.36266205  1303,6835.299,93.734,458.209,456.12,0.0
53619.0,STARLINK-4609,PAYLOAD,2022-10-23 22:00:00,15.35505112,0.0001469,53.2173,9.3321,46.6601,276.9467,-0.033503,-0.01075724,0.0,0 STARLINK-4609,1 53619U 22104AH  22296.91667824 -.01075724  00000-0 -33503-1 0  9990,2 53619  53.2173   9.3321 0001469  46.6601 276.9467 15.35505112  1301,6837.558000000001,93.78,460.427,458.418,0.0
53619.0,STARLINK-4609,PAYLOAD,2022-10-24 06:00:00,15.34751962,0.000162,53.2173,7.7738,38.5895,328.1796,-0.034556,-0.0108243,0.0,0 STARLINK-4609,1 53619U 22104AH  22297.25001157 -.01082430  00000-0 -34556-1 0  9990,2 53619  53.2173   7.7738 0001620  38.5895 328.1796 15.34751962  8991,6839.794,93.826,462.767,460.551,0.0
53619.0,STARLINK-4609,PAYLOAD,2022-10-24 14:00:01,15.33989113,0.0001538,53.2175,6.2196,45.0606,3.9626,-0.0352769999999999,-0.01078684,0.0,0 STARLINK-4609,1 53619U 22104AH  22297.58334491 -.01078684  00000-0 -35277-1 0  9993,2 53619  53.2175   6.2196 0001538  45.0606   3.9626 15.33989113  1304,6842.062,93.873,464.979,462.874,0.0
53619.0,STARLINK-4609,PAYLOAD,2022-10-24 22:00:00,15.33220445,0.0001582,53.2174,4.6637,42.5826,47.7868,-0.035682,-0.01065831,0.0,0 STARLINK-4609,1 53619U 22104AH  22297.91667824 -.01065831  00000-0 -35682-1 0  9999,2 53619  53.2174   4.6637 0001582  42.5826  47.7868 15.33220445  1300,6844.348000000001,93.92,467.296,465.131,0.0
53619.0,STARLINK-4609,PAYLOAD,2022-10-25 06:00:00,15.32466637,0.0001876999999999,53.2173,3.1109,40.6572,90.1373,-0.036814,-0.01073119,0.0,0 STARLINK-4609,1 53619U 22104AH  22298.25001157 -.01073119  00000-0 -36814-1 0  9994,2 53619  53.2173   3.1109 0001877  40.6572  90.1373 15.32466637  9148,6846.593000000003,93.966,469.74300000000005,467.173,0.0
53619.0,STARLINK-4609,PAYLOAD,2022-10-25 14:00:01,15.31714934,0.0001809,53.2174,1.5621,49.2763,121.0286,-0.038098,-0.01083577,0.0,0 STARLINK-4609,1 53619U 22104AH  22298.58334491 -.01083577  00000-0 -38098-1 0  9995,2 53619  53.2174   1.5621 0001809  49.2763 121.0286 15.31714934  1304,6848.831999999999,94.012,471.936,469.459,0.0
53619.0,STARLINK-4609,PAYLOAD,2022-10-25 22:00:01,15.30944727,0.0001583,53.2174,0.0114,47.4676,161.5098,-0.038448,-0.01068683,0.0,0 STARLINK-4609,1 53619U 22104AH  22298.91668981 -.01068683  00000-0 -38448-1 0  9996,2 53619  53.2174   0.0114 0001583  47.4676 161.5098 15.30944727  1301,6851.129,94.06,474.079,471.91,0.0
53619.0,STARLINK-4609,PAYLOAD,2022-10-26 06:00:00,15.30204772,0.0001751,53.217,358.4643,41.7127,204.8814,-0.040413,-0.01095255,0.0,0 STARLINK-4609,1 53619U 22104AH  22299.25001157 -.01095255  00000-0 -40413-1 0  9990,2 53619  53.2170 358.4643 0001751  41.7127 204.8814 15.30204772  9291,6853.3380000000025,94.105,476.403,474.003,0.0
53619.0,STARLINK-4609,PAYLOAD,2022-10-26 14:00:01,15.29422398,0.0001814,53.2175,356.9207,37.1877,246.1934,-0.0400839999999999,-0.01063093,0.0,0 STARLINK-4609,1 53619U 22104AH  22299.58334491 -.01063093  00000-0 -40084-1 0  9995,2 53619  53.2175 356.9207 0001814  37.1877 246.1934 15.29422398  1306,6855.675,94.153,478.783,476.296,0.0
53619.0,STARLINK-4609,PAYLOAD,2022-10-26 22:00:00,15.28665255,0.0001363,53.2175,355.3754,52.983,266.2632,-0.041224,-0.01067519,0.0,0 STARLINK-4609,1 53619U 22104AH  22299.91667824 -.01067519  00000-0 -41224-1 0  9995,2 53619  53.2175 355.3754 0001363  52.9830 266.2632 15.28665255  1307,6857.938,94.2,480.73800000000006,478.869,0.0
53619.0,STARLINK-4609,PAYLOAD,2022-10-27 14:00:01,15.27143782,0.0001549,53.2174,352.2953,42.3609,345.9401,-0.043003,-0.01063163,0.0,0 STARLINK-4609,1 53619U 22104AH  22300.58335648 -.01063163  00000-0 -43003-1 0  9995,2 53619  53.2174 352.2953 0001549  42.3609 345.9401 15.27143782  9500,6862.493,94.294,485.421,483.295,0.0
